STARLINK-36180          
1 67114U 25299N   26013.57728552 -.00387486  00000+0 -87302-2 0  9998
2 67114  42.9995 125.7619 0001648 283.6494  76.4180 15.43968892  4628
STARLINK-35892          
1 67115U 25299P   26013.36443175  .00039173  00000+0  93944-3 0  9996
2 67115  42.9948 127.6086 0001501 185.6827 174.4013 15.40724220  4586
STARLINK-35738          
1 67116U 25299Q   26013.35771125  .00052819  00000+0  12621-2 0  9999
2 67116  42.9980 127.5632 0001259 264.3416  95.7297 15.40720542  4580
STARLINK-35674          
1 67117U 25299R   26013.37339472  .00032587  00000+0  78360-3 0  9990
2 67117  42.9988 127.6848 0001182 261.1184  98.9538 15.40716896  4581
STARLINK-35701          
1 67118U 25299S   26014.25002315  .00049782  00000+0  11923-2 0  9998
2 67118  42.9994 122.0899 0001641 258.0083 154.0084 15.40673196  5987
STARLINK-36179          
1 67119U 25299T   26013.37115327  .00034434  00000+0  82731-3 0  9993
2 67119  42.9994 127.6654 0001308 246.0273 114.0447 15.40719528  4580
STARLINK-36217          
1 67120U 25299U   26014.25002315  .00047429  00000+0  11365-2 0  9997
2 67120  42.9999 121.9686 0001029 264.1922 197.5860 15.40677525  6038
STARLINK-36124          
1 67121U 25299V   26013.60582296  .00039863  00000+0  95573-3 0  9994
2 67121  42.9996 125.9814 0001474 268.9033  91.1654 15.40725643  4620
STARLINK-36188          
1 67122U 25299W   26013.61030365  .00033926  00000+0  81520-3 0  9992
2 67122  42.9996 126.0170 0001380 266.2336  93.8362 15.40721966  4620
STARLINK-36151          
1 67123U 25299X   26013.69081702  .00027414  00000+0  66089-3 0  9990
2 67123  42.9990 125.7652 0001120 268.5058  91.5670 15.40713300  4635
STARLINK-36195          
1 67124U 25299Y   26013.67961286  .00034862  00000+0  83757-3 0  9999
2 67124  42.9998 125.6784 0001927 261.9239  98.1399 15.40715658  4631
STARLINK-36219          
1 67125U 25299Z   26014.25002315  .00053599  00000+0  12823-2 0  9997
2 67125  42.9996 122.2092 0001689 256.1174 106.1328 15.40677263  6031
