CCSDS_OMM_VERS = 2.0
CREATION_DATE  = 
ORIGINATOR     = 

OBJECT_NAME    = STARLINK-36180
OBJECT_ID      = 2025-299N
CENTER_NAME    = EARTH
REF_FRAME      = TEME
TIME_SYSTEM    = UTC
MEAN_ELEMENT_THEORY = SGP/SGP4

EPOCH          = 2026-01-13T13:51:17.468928
MEAN_MOTION    = 15.43968892
ECCENTRICITY   = .00016488
INCLINATION    = 42.9995
RA_OF_ASC_NODE = 125.7619
ARG_OF_PERICENTER = 283.6494
MEAN_ANOMALY   = 76.4180

EPHEMERIS_TYPE = 0
CLASSIFICATION_TYPE = U
NORAD_CAT_ID   = 67114
ELEMENT_SET_NO = 999
REV_AT_EPOCH   = 462
BSTAR          = -.87301616E-2
MEAN_MOTION_DOT = -.387486E-2
MEAN_MOTION_DDOT = 0

CCSDS_OMM_VERS = 2.0
CREATION_DATE  = 
ORIGINATOR     = 

OBJECT_NAME    = STARLINK-35892
OBJECT_ID      = 2025-299P
CENTER_NAME    = EARTH
REF_FRAME      = TEME
TIME_SYSTEM    = UTC
MEAN_ELEMENT_THEORY = SGP/SGP4

EPOCH          = 2026-01-13T08:44:46.903200
MEAN_MOTION    = 15.40724220
ECCENTRICITY   = .00015015
INCLINATION    = 42.9948
RA_OF_ASC_NODE = 127.6086
ARG_OF_PERICENTER = 185.6827
MEAN_ANOMALY   = 174.4013

EPHEMERIS_TYPE = 0
CLASSIFICATION_TYPE = U
NORAD_CAT_ID   = 67115
ELEMENT_SET_NO = 999
REV_AT_EPOCH   = 458
BSTAR          = .93943643E-3
MEAN_MOTION_DOT = .39173E-3
MEAN_MOTION_DDOT = 0

CCSDS_OMM_VERS = 2.0
CREATION_DATE  = 
ORIGINATOR     = 

OBJECT_NAME    = STARLINK-35738
OBJECT_ID      = 2025-299Q
CENTER_NAME    = EARTH
REF_FRAME      = TEME
TIME_SYSTEM    = UTC
MEAN_ELEMENT_THEORY = SGP/SGP4

EPOCH          = 2026-01-13T08:35:06.252000
MEAN_MOTION    = 15.40720542
ECCENTRICITY   = .00012599
INCLINATION    = 42.9980
RA_OF_ASC_NODE = 127.5632
ARG_OF_PERICENTER = 264.3416
MEAN_ANOMALY   = 95.7297

EPHEMERIS_TYPE = 0
CLASSIFICATION_TYPE = U
NORAD_CAT_ID   = 67116
ELEMENT_SET_NO = 999
REV_AT_EPOCH   = 458
BSTAR          = .12620861E-2
MEAN_MOTION_DOT = .52819E-3
MEAN_MOTION_DDOT = 0

CCSDS_OMM_VERS = 2.0
CREATION_DATE  = 
ORIGINATOR     = 

OBJECT_NAME    = STARLINK-35674
OBJECT_ID      = 2025-299R
CENTER_NAME    = EARTH
REF_FRAME      = TEME
TIME_SYSTEM    = UTC
MEAN_ELEMENT_THEORY = SGP/SGP4

EPOCH          = 2026-01-13T08:57:41.303808
MEAN_MOTION    = 15.40716896
ECCENTRICITY   = .00011821
INCLINATION    = 42.9988
RA_OF_ASC_NODE = 127.6848
ARG_OF_PERICENTER = 261.1184
MEAN_ANOMALY   = 98.9538

EPHEMERIS_TYPE = 0
CLASSIFICATION_TYPE = U
NORAD_CAT_ID   = 67117
ELEMENT_SET_NO = 999
REV_AT_EPOCH   = 458
BSTAR          = .78360111E-3
MEAN_MOTION_DOT = .32587E-3
MEAN_MOTION_DDOT = 0

CCSDS_OMM_VERS = 2.0
CREATION_DATE  = 
ORIGINATOR     = 

OBJECT_NAME    = STARLINK-35701
OBJECT_ID      = 2025-299S
CENTER_NAME    = EARTH
REF_FRAME      = TEME
TIME_SYSTEM    = UTC
MEAN_ELEMENT_THEORY = SGP/SGP4

EPOCH          = 2026-01-14T06:00:02.000160
MEAN_MOTION    = 15.40673196
ECCENTRICITY   = .00016415
INCLINATION    = 42.9994
RA_OF_ASC_NODE = 122.0899
ARG_OF_PERICENTER = 258.0083
MEAN_ANOMALY   = 154.0084

EPHEMERIS_TYPE = 0
CLASSIFICATION_TYPE = U
NORAD_CAT_ID   = 67118
ELEMENT_SET_NO = 999
REV_AT_EPOCH   = 598
BSTAR          = .11922701E-2
MEAN_MOTION_DOT = .49782E-3
MEAN_MOTION_DDOT = 0

CCSDS_OMM_VERS = 2.0
CREATION_DATE  = 
ORIGINATOR     = 

OBJECT_NAME    = STARLINK-36179
OBJECT_ID      = 2025-299T
CENTER_NAME    = EARTH
REF_FRAME      = TEME
TIME_SYSTEM    = UTC
MEAN_ELEMENT_THEORY = SGP/SGP4

EPOCH          = 2026-01-13T08:54:27.642528
MEAN_MOTION    = 15.40719528
ECCENTRICITY   = .00013084
INCLINATION    = 42.9994
RA_OF_ASC_NODE = 127.6654
ARG_OF_PERICENTER = 246.0273
MEAN_ANOMALY   = 114.0447

EPHEMERIS_TYPE = 0
CLASSIFICATION_TYPE = U
NORAD_CAT_ID   = 67119
ELEMENT_SET_NO = 999
REV_AT_EPOCH   = 458
BSTAR          = .82731132E-3
MEAN_MOTION_DOT = .34434E-3
MEAN_MOTION_DDOT = 0

CCSDS_OMM_VERS = 2.0
CREATION_DATE  = 
ORIGINATOR     = 

OBJECT_NAME    = STARLINK-36217
OBJECT_ID      = 2025-299U
CENTER_NAME    = EARTH
REF_FRAME      = TEME
TIME_SYSTEM    = UTC
MEAN_ELEMENT_THEORY = SGP/SGP4

EPOCH          = 2026-01-14T06:00:02.000160
MEAN_MOTION    = 15.40677525
ECCENTRICITY   = .00010298
INCLINATION    = 42.9999
RA_OF_ASC_NODE = 121.9686
ARG_OF_PERICENTER = 264.1922
MEAN_ANOMALY   = 197.5860

EPHEMERIS_TYPE = 0
CLASSIFICATION_TYPE = U
NORAD_CAT_ID   = 67120
ELEMENT_SET_NO = 999
REV_AT_EPOCH   = 603
BSTAR          = .11364584E-2
MEAN_MOTION_DOT = .47429E-3
MEAN_MOTION_DDOT = 0

CCSDS_OMM_VERS = 2.0
CREATION_DATE  = 
ORIGINATOR     = 

OBJECT_NAME    = STARLINK-36124
OBJECT_ID      = 2025-299V
CENTER_NAME    = EARTH
REF_FRAME      = TEME
TIME_SYSTEM    = UTC
MEAN_ELEMENT_THEORY = SGP/SGP4

EPOCH          = 2026-01-13T14:32:23.103744
MEAN_MOTION    = 15.40725643
ECCENTRICITY   = .00014743
INCLINATION    = 42.9996
RA_OF_ASC_NODE = 125.9814
ARG_OF_PERICENTER = 268.9033
MEAN_ANOMALY   = 91.1654

EPHEMERIS_TYPE = 0
CLASSIFICATION_TYPE = U
NORAD_CAT_ID   = 67121
ELEMENT_SET_NO = 999
REV_AT_EPOCH   = 462
BSTAR          = .95573242E-3
MEAN_MOTION_DOT = .39863E-3
MEAN_MOTION_DDOT = 0

CCSDS_OMM_VERS = 2.0
CREATION_DATE  = 
ORIGINATOR     = 

OBJECT_NAME    = STARLINK-36188
OBJECT_ID      = 2025-299W
CENTER_NAME    = EARTH
REF_FRAME      = TEME
TIME_SYSTEM    = UTC
MEAN_ELEMENT_THEORY = SGP/SGP4

EPOCH          = 2026-01-13T14:38:50.235360
MEAN_MOTION    = 15.40721966
ECCENTRICITY   = .00013807
INCLINATION    = 42.9996
RA_OF_ASC_NODE = 126.0170
ARG_OF_PERICENTER = 266.2336
MEAN_ANOMALY   = 93.8362

EPHEMERIS_TYPE = 0
CLASSIFICATION_TYPE = U
NORAD_CAT_ID   = 67122
ELEMENT_SET_NO = 999
REV_AT_EPOCH   = 462
BSTAR          = .81520453E-3
MEAN_MOTION_DOT = .33926E-3
MEAN_MOTION_DDOT = 0

CCSDS_OMM_VERS = 2.0
CREATION_DATE  = 
ORIGINATOR     = 

OBJECT_NAME    = STARLINK-36151
OBJECT_ID      = 2025-299X
CENTER_NAME    = EARTH
REF_FRAME      = TEME
TIME_SYSTEM    = UTC
MEAN_ELEMENT_THEORY = SGP/SGP4

EPOCH          = 2026-01-13T16:34:46.590528
MEAN_MOTION    = 15.40713300
ECCENTRICITY   = .00011207
INCLINATION    = 42.9990
RA_OF_ASC_NODE = 125.7652
ARG_OF_PERICENTER = 268.5058
MEAN_ANOMALY   = 91.5670

EPHEMERIS_TYPE = 0
CLASSIFICATION_TYPE = U
NORAD_CAT_ID   = 67123
ELEMENT_SET_NO = 999
REV_AT_EPOCH   = 463
BSTAR          = .66088569E-3
MEAN_MOTION_DOT = .27414E-3
MEAN_MOTION_DDOT = 0

CCSDS_OMM_VERS = 2.0
CREATION_DATE  = 
ORIGINATOR     = 

OBJECT_NAME    = STARLINK-36195
OBJECT_ID      = 2025-299Y
CENTER_NAME    = EARTH
REF_FRAME      = TEME
TIME_SYSTEM    = UTC
MEAN_ELEMENT_THEORY = SGP/SGP4

EPOCH          = 2026-01-13T16:18:38.551104
MEAN_MOTION    = 15.40715658
ECCENTRICITY   = .00019274
INCLINATION    = 42.9998
RA_OF_ASC_NODE = 125.6784
ARG_OF_PERICENTER = 261.9239
MEAN_ANOMALY   = 98.1399

EPHEMERIS_TYPE = 0
CLASSIFICATION_TYPE = U
NORAD_CAT_ID   = 67124
ELEMENT_SET_NO = 999
REV_AT_EPOCH   = 463
BSTAR          = .83756741E-3
MEAN_MOTION_DOT = .34862E-3
MEAN_MOTION_DDOT = 0

CCSDS_OMM_VERS = 2.0
CREATION_DATE  = 
ORIGINATOR     = 

OBJECT_NAME    = STARLINK-36219
OBJECT_ID      = 2025-299Z
CENTER_NAME    = EARTH
REF_FRAME      = TEME
TIME_SYSTEM    = UTC
MEAN_ELEMENT_THEORY = SGP/SGP4

EPOCH          = 2026-01-14T06:00:02.000160
MEAN_MOTION    = 15.40677263
ECCENTRICITY   = .0001689
INCLINATION    = 42.9996
RA_OF_ASC_NODE = 122.2092
ARG_OF_PERICENTER = 256.1174
MEAN_ANOMALY   = 106.1328

EPHEMERIS_TYPE = 0
CLASSIFICATION_TYPE = U
NORAD_CAT_ID   = 67125
ELEMENT_SET_NO = 999
REV_AT_EPOCH   = 603
BSTAR          = .12823109E-2
MEAN_MOTION_DOT = .53599E-3
MEAN_MOTION_DDOT = 0

